{
    "links": {
        "self": "http://www.neowsapp.com/rest/v1/neo/3692283?api_key=iIulBulltgU6a56xZRHN4H3l9WmuAYTsLGpBGhQ2"
    },
    "id": "3692283",
    "neo_reference_id": "3692283",
    "name": "(2014 SB324)",
    "designation": "2014 SB324",
    "nasa_jpl_url": "http://ssd.jpl.nasa.gov/sbdb.cgi?sstr=3692283",
    "absolute_magnitude_h": 21.8,
    "estimated_diameter": {
        "kilometers": {
            "estimated_diameter_min": 0.1160259082,
            "estimated_diameter_max": 0.2594418179
        },
        "meters": {
            "estimated_diameter_min": 116.0259082094,
            "estimated_diameter_max": 259.4418179074
        },
        "miles": {
            "estimated_diameter_min": 0.0720951346,
            "estimated_diameter_max": 0.1612096218
        },
        "feet": {
            "estimated_diameter_min": 380.6624406898,
            "estimated_diameter_max": 851.1870938635
        }
    },
    "is_potentially_hazardous_asteroid": false,
    "close_approach_data": [
        {
            "close_approach_date": "2010-09-16",
            "close_approach_date_full": "2010-Sep-16 01:07",
            "epoch_date_close_approach": 1284599220000,
            "relative_velocity": {
                "kilometers_per_second": "16.3657636292",
                "kilometers_per_hour": "58916.7490650131",
                "miles_per_hour": "36608.576662091"
            },
            "miss_distance": {
                "astronomical": "0.3614522589",
                "lunar": "140.6049287121",
                "kilometers": "54072488.038128543",
                "miles": "33599086.0565701734"
            },
            "orbiting_body": "Earth"
        },
        {
            "close_approach_date": "2014-09-23",
            "close_approach_date_full": "2014-Sep-23 01:08",
            "epoch_date_close_approach": 1411434480000,
            "relative_velocity": {
                "kilometers_per_second": "13.6846346728",
                "kilometers_per_hour": "49264.6848220102",
                "miles_per_hour": "30611.1592995429"
            },
            "miss_distance": {
                "astronomical": "0.0731849573",
                "lunar": "28.4689483897",
                "kilometers": "10948313.728120951",
                "miles": "6802966.6928970838"
            },
            "orbiting_body": "Earth"
        },
        {
            "close_approach_date": "2018-04-23",
            "close_approach_date_full": "2018-Apr-23 04:36",
            "epoch_date_close_approach": 1524458160000,
            "relative_velocity": {
                "kilometers_per_second": "12.7506887446",
                "kilometers_per_hour": "45902.4794805906",
                "miles_per_hour": "28522.0156528148"
            },
            "miss_distance": {
                "astronomical": "0.4917537186",
                "lunar": "191.2921965354",
                "kilometers": "73565308.867139382",
                "miles": "45711363.2659601916"
            },
            "orbiting_body": "Earth"
        },
        {
            "close_approach_date": "2018-09-29",
            "close_approach_date_full": "2018-Sep-29 17:29",
            "epoch_date_close_approach": 1538242140000,
            "relative_velocity": {
                "kilometers_per_second": "17.2896952475",
                "kilometers_per_hour": "62242.9028909986",
                "miles_per_hour": "38675.3192991319"
            },
            "miss_distance": {
                "astronomical": "0.3947962578",
                "lunar": "153.5757442842",
                "kilometers": "59060679.250850886",
                "miles": "36698604.3495827868"
            },
            "orbiting_body": "Earth"
        }
    ],
    "orbital_data": {
        "orbit_id": "10",
        "orbit_determination_date": "2018-02-10 07:05:54",
        "first_observation_date": "2014-09-23",
        "last_observation_date": "2014-10-02",
        "data_arc_in_days": 9,
        "observations_used": 134,
        "orbit_uncertainty": "7",
        "minimum_orbit_intersection": ".0722399",
        "jupiter_tisserand_invariant": "5.116",
        "epoch_osculation": "2459000.5",
        "eccentricity": ".1214374602056148",
        "semi_major_axis": "1.223741979909105",
        "inclination": "26.23417722173876",
        "ascending_node_longitude": "359.6906003151594",
        "orbital_period": "494.4623342267159",
        "perihelion_distance": "1.075133861921953",
        "perihelion_argument": "1.801326516771508",
        "aphelion_distance": "1.372350097896257",
        "perihelion_time": "2458904.067174781963",
        "mean_anomaly": "70.20922459702631",
        "mean_motion": ".7280635451495004",
        "equinox": "J2000",
        "orbit_class": {
            "orbit_class_type": "AMO",
            "orbit_class_description": "Near-Earth asteroid orbits similar to that of 1221 Amor",
            "orbit_class_range": "1.017 AU < q (perihelion) < 1.3 AU"
        }
    },
    "is_sentry_object": false
}